[{"OBJECT_NAME":"FOURIER","OBJECT_ID":"2025-185B","EPOCH":"2026-03-09T17:14:49.271712","MEAN_MOTION":14.77345087,"ECCENTRICITY":0.00115317,"INCLINATION":97.9632,"RA_OF_ASC_NODE":153.1639,"ARG_OF_PERICENTER":59.1676,"MEAN_ANOMALY":301.0667,"EPHEMERIS_TYPE":0,"CLASSIFICATION_TYPE":"U","NORAD_CAT_ID":65298,"ELEMENT_SET_NO":999,"REV_AT_EPOCH":2914,"BSTAR":0.0018015505,"MEAN_MOTION_DOT":0.00012782,"MEAN_MOTION_DDOT":0},{"OBJECT_NAME":"IRIDIUM 33 DEB","OBJECT_ID":"1997-051RX","EPOCH":"2026-03-09T13:24:32.944896","MEAN_MOTION":14.72404187,"ECCENTRICITY":0.00186074,"INCLINATION":86.3248,"RA_OF_ASC_NODE":286.1664,"ARG_OF_PERICENTER":259.386,"MEAN_ANOMALY":100.5261,"EPHEMERIS_TYPE":0,"CLASSIFICATION_TYPE":"U","NORAD_CAT_ID":35744,"ELEMENT_SET_NO":999,"REV_AT_EPOCH":88608,"BSTAR":0.001082238,"MEAN_MOTION_DOT":6.897e-5,"MEAN_MOTION_DDOT":0}]
